{"fetched_at":"2026-03-29T02:12:04Z","count":15717,"tles":[{"name":"FLTSATCOM 8 (USA 46)","line1":"1 20253U 89077A   26087.56975346 -.00000380  00000+0  00000+0 0  9991","line2":"2 20253  12.4438 351.6472 0008058 356.3586 168.8484  1.00275102259756","category":"Military"}]}