{
  "norad_id": 20253,
  "name": "FLTSATCOM 8 (USA 46)",
  "history": [
    {
      "epoch": "2026-03-28T13:40:26.698944",
      "apogee_km": 35819.64491943445,
      "perigee_km": 35751.68530319144,
      "latitude_deg": -9.045298499466025,
      "longitude_deg": -140.0036678398028,
      "semi_major_axis_km": 42163.80211131295,
      "eccentricity": 0.0008059,
      "inclination_deg": 12.4438,
      "raan_deg": 351.6472,
      "arg_perigee_deg": 356.3586,
      "mean_anomaly_deg": 168.8484,
      "mean_motion_rev_day": 1.00275102
    }
  ]
}